KUIPER-00176            
1 65788U 25217AC  25343.66668981 -.00183711  00000+0 -13707-1 0  9999
2 65788  51.8912  82.7516 0004061 332.5865 353.1373 15.03338126  4296
KUIPER-00101            
1 65947U 25228A   25343.66668981 -.00071899  00000+0 -59241-2 0  9995
2 65947  51.9012  39.5891 0004307  19.5424 146.4408 14.98889694  4293
KUIPER-00113            
1 65948U 25228B   25343.66668981  .00038788  00000+0  22020-2 0  9999
2 65948  51.8849  37.2605 0005934 354.3696 143.2128 15.12551253  5544
KUIPER-00117            
1 65949U 25228C   25343.66668981  .00002708  00000+0  20431-3 0  9998
2 65949  51.8906  38.1469 0009653  10.6403  43.6633 15.05693369  5559
KUIPER-00121            
1 65950U 25228D   25343.53002965 -.00200681  00000+0 -81341-2 0  9998
2 65950  51.8825  36.7994 0006737  16.3084 343.8113 15.24976479  9915
KUIPER-00122            
1 65951U 25228E   25343.66668981  .00030595  00000+0  31121-2 0  9993
2 65951  51.8951  41.4652 0007274  36.8890 289.6134 14.90491851  5429
KUIPER-00123            
1 65952U 25228F   25343.66668981 -.00002577  00000+0 -24491-3 0  9998
2 65952  51.8968  41.4652 0007242   7.7845 174.1090 14.89137094  3230
KUIPER-00124            
1 65953U 25228G   25343.66668981 -.00937183  00000+0 -52773-1 0  9991
2 65953  51.8887  36.3896 0005874  18.3331 266.0514 15.15523013  5011
